[{"OBJECT_NAME":"ION SCV-004","OBJECT_ID":"2022-002K","EPOCH":"2026-03-09T16:32:03.244416","MEAN_MOTION":15.29369331,"ECCENTRICITY":0.00072157,"INCLINATION":97.2961,"RA_OF_ASC_NODE":128.2294,"ARG_OF_PERICENTER":1.6783,"MEAN_ANOMALY":358.448,"EPHEMERIS_TYPE":0,"CLASSIFICATION_TYPE":"U","NORAD_CAT_ID":50993,"ELEMENT_SET_NO":999,"REV_AT_EPOCH":23008,"BSTAR":0.00023198467,"MEAN_MOTION_DOT":6.538e-5,"MEAN_MOTION_DDOT":0},{"OBJECT_NAME":"STARLINK-32851","OBJECT_ID":"2025-018E","EPOCH":"2026-03-09T21:56:32.024256","MEAN_MOTION":15.30198638,"ECCENTRICITY":0.00011999,"INCLINATION":53.1622,"RA_OF_ASC_NODE":308.4855,"ARG_OF_PERICENTER":102.3095,"MEAN_ANOMALY":257.804,"EPHEMERIS_TYPE":0,"CLASSIFICATION_TYPE":"U","NORAD_CAT_ID":62810,"ELEMENT_SET_NO":999,"REV_AT_EPOCH":6320,"BSTAR":0.00080600521,"MEAN_MOTION_DOT":0.00023587,"MEAN_MOTION_DDOT":0}]
